[
  {
    "enabled": true,
    "name": "Argentina",
    "flagIcon": "ðŸ‡¦ðŸ‡·",
    "code": "AR",
    "flag": "flag-AR.png",
    "dialCode": "54",
    "mask": "99 9999-9999"
  },
  {
    "enabled": true,
    "name": "Bolivia",
    "flagIcon": "ðŸ‡§ðŸ‡´",
    "code": "BO",
    "flag": "flag-BO.png",
    "dialCode": "591",
    "mask": "99999999"
  },
  {
    "enabled": true,
    "name": "Brasil",
    "flagIcon": "ðŸ‡§ðŸ‡·",
    "code": "BR",
    "flag": "flag-BR.png",
    "dialCode": "55",
    "mask": "(99) 99999 9999"
  },
  {
    "enabled": true,
    "name": "Chile",
    "flagIcon": "ðŸ‡¨ðŸ‡±",
    "code": "CL",
    "flag": "flag-CL.png",
    "dialCode": "56",
    "mask": "(9) 9999 9999"
  },
  {
    "enabled": true,
    "es": "Colombia",
    "flagIcon": "ðŸ‡¨ðŸ‡´",
    "code": "CO",
    "flag": "flag-CO.png",
    "dialCode": "57",
    "mask": "999 9999999"
  },
  {
    "enabled": true,
    "name": "Costa Rica",
    "flagIcon": "ðŸ‡¨ðŸ‡·",
    "code": "CR",
    "flag": "flag-CR.png",
    "dialCode": "506",
    "mask": "9999 9999"
  },
  {
    "enabled": true,
    "name": "Cuba",
    "flagIcon": "ðŸ‡¨ðŸ‡º",
    "code": "CU",
    "flag": "flag-CU.png",
    "dialCode": "53",
    "mask": "99 9999999"
  },{
    "enabled": true,
    "name": "Ecuador",
    "flagIcon": "ðŸ‡ªðŸ‡¨",
    "code": "EC",
    "flag": "flag-EC.png",
    "dialCode": "593",
    "mask": "999 999 9999"
  },{
    "enabled": true,
    "es": "El Salvador",
    "flagIcon": "ðŸ‡¸ðŸ‡»",
    "code": "SV",
    "flag": "flag-SV.png",
    "dialCode": "503",
    "mask": "9999 9999"
  },{
    "enabled": true,
    "es": "Guatemala",
    "flagIcon": "ðŸ‡¬ðŸ‡¹",
    "code": "GT",
    "flag": "flag-GT.png",
    "dialCode": "502",
    "mask": "9999 9999"
  },{
    "enabled": true,
    "es": "Honduras",
    "flagIcon": "ðŸ‡­ðŸ‡³",
    "code": "HN",
    "flag": "flag-HN.png",
    "dialCode": "504",
    "mask": "9999-9999"
  },
  {
    "enabled": true,
    "es": "Mexico",
    "flagIcon": "ðŸ‡²ðŸ‡½",
    "code": "MX",
    "flag": "flag-MX.png",
    "dialCode": "52",
    "mask": "999 999 999 9999"
  },
  {
    "enabled": true,
    "es": "Nicaragua",
    "flagIcon": "ðŸ‡³ðŸ‡®",
    "code": "NI",
    "flag": "flag-NI.png",
    "dialCode": "505",
    "mask": "9999 9999"
  },
  {
    "enabled": true,
    "es": "Panama",
    "flagIcon": "ðŸ‡µðŸ‡¦",
    "code": "PA",
    "flag": "flag-PA.png",
    "dialCode": "507",
    "mask": "9999-9999"
  },
  
  {
    "enabled": true,
    "es": "Paraguay",
    "flagIcon": "ðŸ‡µðŸ‡¾",
    "code": "PY",
    "flag": "flag-PY.png",
    "dialCode": "595",
    "mask": "9999 999999"
  },
  {
    "enabled": true,
    "es": "Peru",
    "flagIcon": "ðŸ‡µðŸ‡ª",
    "code": "PE",
    "flag": "flag-PE.png",
    "dialCode": "51",
    "mask": "999 999 999"
  },
  {
    "enabled": true,
    "es": "Puerto Rico",
    "flagIcon": "ðŸ‡µðŸ‡·",
    "code": "PR",
    "flag": "flag-PR.png",
    "dialCode": "1939",
    "mask": "(999) 999-9999"
  },{
    "enabled": true,
    "es": "RepÃºblica Dominicana",
    "flagIcon": "ðŸ‡©ðŸ‡´",
    "code": "DO",
    "flag": "flag-DO.png",
    "dialCode": "1939",
    "mask": "(999) 999-9999"
  },
  {
    "enabled": true,
    "es": "Uruguay",
    "flagIcon": "ðŸ‡ºðŸ‡¾",
    "code": "UY",
    "flag": "flag-UY.png",
    "dialCode": "598",
    "mask": "999 999 999"
  },
  {
    "enabled": true,
    "es": "Venezuela",
    "flagIcon": "ðŸ‡»ðŸ‡ª",
    "code": "VE",
    "flag": "flag-VE.png",
    "dialCode": "58",
    "mask": "9999-9999999"
  }]